IRIDIUM 5               
1 24795U 97020D   24289.19179198  .00011448  00000+0  10381-2 0  9997
2 24795  86.3978 196.2728 0114365 296.3050  62.6464 14.90283870448950
IRIDIUM 4               
1 24796U 97020E   24289.20363677  .00001141  00000+0  38308-3 0  9996
2 24796  86.3896 276.5753 0002197  89.3216 270.8232 14.36420982437325
IRIDIUM 16              
1 24841U 97030F   24289.13188733  .00001281  00000+0  41551-3 0  9997
2 24841  86.3996 308.2599 0003858 120.0967 240.0614 14.38221942432032
IRIDIUM 911             
1 24842U 97030G   24289.10000747  .00001384  00000+0  37508-3 0  9994
2 24842  86.4422 307.2906 0013909 185.5018 174.6035 14.46964305439616
IRIDIUM 17              
1 24870U 97034B   24289.17632222  .00001289  00000+0  42565-3 0  9998
2 24870  86.3980 337.8133 0003825  94.3968 265.7667 14.37336851428387
IRIDIUM 920             
1 24871U 97034C   24288.59849501  .00001210  00000+0  37004-3 0  9990
2 24871  86.3956 317.8526 0012108 161.7974 198.3661 14.41027459431201
